[{"OBJECT_NAME":"STARLINK-35012","OBJECT_ID":"2025-191F","EPOCH":"2026-03-09T12:45:48.953376","MEAN_MOTION":15.05651084,"ECCENTRICITY":0.00022421,"INCLINATION":97.6033,"RA_OF_ASC_NODE":301.3369,"ARG_OF_PERICENTER":100.1247,"MEAN_ANOMALY":260.0232,"EPHEMERIS_TYPE":0,"CLASSIFICATION_TYPE":"U","NORAD_CAT_ID":65384,"ELEMENT_SET_NO":999,"REV_AT_EPOCH":3024,"BSTAR":0.00037638872,"MEAN_MOTION_DOT":5.375e-5,"MEAN_MOTION_DDOT":0},{"OBJECT_NAME":"TITAN 4B DEB","OBJECT_ID":"2000-047D","EPOCH":"2026-03-09T07:18:39.687264","MEAN_MOTION":14.9350217,"ECCENTRICITY":0.00548001,"INCLINATION":67.9962,"RA_OF_ASC_NODE":173.9856,"ARG_OF_PERICENTER":92.7359,"MEAN_ANOMALY":268.0056,"EPHEMERIS_TYPE":0,"CLASSIFICATION_TYPE":"U","NORAD_CAT_ID":35415,"ELEMENT_SET_NO":999,"REV_AT_EPOCH":6621,"BSTAR":7.6847696e-5,"MEAN_MOTION_DOT":7.12e-6,"MEAN_MOTION_DDOT":0}]
